{
  "type": "FeatureCollection",
  "features": [
    {
      "type": "Feature",
      "properties": {
        "norad_id": 66617,
        "name": "STARLINK-35940",
        "group": "last-30-days",
        "lat": -5.2843286898359985,
        "lon": 140.12198541913784,
        "alt_km": 448.8371448336211,
        "timestamp": "2025-12-21T20:41:06.755886+00:00",
        "meta_object_name": "STARLINK-35940",
        "meta_object_id": "2025-271A",
        "meta_epoch": "2025-12-21T14:28:55.922592",
        "meta_mean_motion": 15.39655605,
        "meta_eccentricity": 0.00010887,
        "meta_inclination": 53.1575,
        "meta_ra_of_asc_node": 145.3169,
        "meta_arg_of_pericenter": 97.4986,
        "meta_mean_anomaly": 262.6143,
        "meta_ephemeris_type": 0,
        "meta_classification_type": "U",
        "meta_norad_cat_id": 66617,
        "meta_element_set_no": 999,
        "meta_rev_at_epoch": 557,
        "meta_bstar": 0.00071889032,
        "meta_mean_motion_dot": 0.00028496,
        "meta_mean_motion_ddot": 0,
        "tle_line1": "1 66617U 25271A   25355.60342503  .00028496  00000+0  71889-3 0  9990",
        "tle_line2": "2 66617  53.1575 145.3169 0001088  97.4986 262.6143 15.39655605  5579"
      },
      "geometry": {
        "type": "Point",
        "coordinates": [
          140.12198541913784,
          -5.2843286898359985
        ]
      }
    },
    {
      "type": "Feature",
      "properties": {
        "norad_id": 66618,
        "name": "STARLINK-35970",
        "group": "last-30-days",
        "lat": -52.763247347865644,
        "lon": 44.091391041833525,
        "alt_km": 432.42813422319523,
        "timestamp": "2025-12-21T20:41:06.755896+00:00",
        "meta_object_name": "STARLINK-35970",
        "meta_object_id": "2025-271B",
        "meta_epoch": "2025-12-21T11:47:27.036096",
        "meta_mean_motion": 15.4627532,
        "meta_eccentricity": 9.778e-05,
        "meta_inclination": 53.1603,
        "meta_ra_of_asc_node": 145.3183,
        "meta_arg_of_pericenter": 165.6598,
        "meta_mean_anomaly": 194.4438,
        "meta_ephemeris_type": 0,
        "meta_classification_type": "U",
        "meta_norad_cat_id": 66618,
        "meta_element_set_no": 999,
        "meta_rev_at_epoch": 556,
        "meta_bstar": 0.00096564401,
        "meta_mean_motion_dot": 0.0004819,
        "meta_mean_motion_ddot": 0,
        "tle_line1": "1 66618U 25271B   25355.49128514  .00048190  00000+0  96564-3 0  9992",
        "tle_line2": "2 66618  53.1603 145.3183 0000977 165.6598 194.4438 15.46275320  5569"
      },
      "geometry": {
        "type": "Point",
        "coordinates": [
          44.091391041833525,
          -52.763247347865644
        ]
      }
    },
    {
      "type": "Feature",
      "properties": {
        "norad_id": 66619,
        "name": "STARLINK-35951",
        "group": "last-30-days",
        "lat": -30.691958672118655,
        "lon": -9.92737309010283,
        "alt_km": 428.95354250680157,
        "timestamp": "2025-12-21T20:41:06.755905+00:00",
        "meta_object_name": "STARLINK-35951",
        "meta_object_id": "2025-271C",
        "meta_epoch": "2025-12-21T08:52:56.449920",
        "meta_mean_motion": 15.46426118,
        "meta_eccentricity": 0.00027848,
        "meta_inclination": 53.1602,
        "meta_ra_of_asc_node": 145.991,
        "meta_arg_of_pericenter": 209.0656,
        "meta_mean_anomaly": 151.0197,
        "meta_ephemeris_type": 0,
        "meta_classification_type": "U",
        "meta_norad_cat_id": 66619,
        "meta_element_set_no": 999,
        "meta_rev_at_epoch": 554,
        "meta_bstar": 0.0017028159,
        "meta_mean_motion_dot": 0.00086184,
        "meta_mean_motion_ddot": 0,
        "tle_line1": "1 66619U 25271C   25355.37009780  .00086184  00000+0  17028-2 0  9995",
        "tle_line2": "2 66619  53.1602 145.9910 0002784 209.0656 151.0197 15.46426118  5541"
      },
      "geometry": {
        "type": "Point",
        "coordinates": [
          -9.92737309010283,
          -30.691958672118655
        ]
      }
    },
    {
      "type": "Feature",
      "properties": {
        "norad_id": 66620,
        "name": "STARLINK-35936",
        "group": "last-30-days",
        "lat": -13.01843609676368,
        "lon": -26.322957716616514,
        "alt_km": 438.1893868251709,
        "timestamp": "2025-12-21T20:41:06.755915+00:00",
        "meta_object_name": "STARLINK-35936",
        "meta_object_id": "2025-271D",
        "meta_epoch": "2025-12-19T22:47:58.481952",
        "meta_mean_motion": 15.45204148,
        "meta_eccentricity": 0.0001217,
        "meta_inclination": 53.1593,
        "meta_ra_of_asc_node": 152.7719,
        "meta_arg_of_pericenter": 60.4895,
        "meta_mean_anomaly": 299.6234,
        "meta_ephemeris_type": 0,
        "meta_classification_type": "U",
        "meta_norad_cat_id": 66620,
        "meta_element_set_no": 999,
        "meta_rev_at_epoch": 532,
        "meta_bstar": -0.0084825,
        "meta_mean_motion_dot": -0.00389636,
        "meta_mean_motion_ddot": 0,
        "tle_line1": "1 66620U 25271D   25353.94998243 -.00389636  00000+0 -84825-2 0  9998",
        "tle_line2": "2 66620  53.1593 152.7719 0001217  60.4895 299.6234 15.45204148  5322"
      },
      "geometry": {
        "type": "Point",
        "coordinates": [
          -26.322957716616514,
          -13.01843609676368
        ]
      }
    },
    {
      "type": "Feature",
      "properties": {
        "norad_id": 66621,
        "name": "STARLINK-35847",
        "group": "last-30-days",
        "lat": -53.080420327281644,
        "lon": 49.781881909666794,
        "alt_km": 434.0101981366479,
        "timestamp": "2025-12-21T20:41:06.755925+00:00",
        "meta_object_name": "STARLINK-35847",
        "meta_object_id": "2025-271E",
        "meta_epoch": "2025-12-19T22:32:40.837056",
        "meta_mean_motion": 15.4673989,
        "meta_eccentricity": 5.74e-05,
        "meta_inclination": 53.1594,
        "meta_ra_of_asc_node": 152.6978,
        "meta_arg_of_pericenter": 182.8412,
        "meta_mean_anomaly": 177.2593,
        "meta_ephemeris_type": 0,
        "meta_classification_type": "U",
        "meta_norad_cat_id": 66621,
        "meta_element_set_no": 999,
        "meta_rev_at_epoch": 532,
        "meta_bstar": -0.0053109,
        "meta_mean_motion_dot": -0.00261578,
        "meta_mean_motion_ddot": 0,
        "tle_line1": "1 66621U 25271E   25353.93936154 -.00261578  00000+0 -53109-2 0  9996",
        "tle_line2": "2 66621  53.1594 152.6978 0000574 182.8412 177.2593 15.46739890  5326"
      },
      "geometry": {
        "type": "Point",
        "coordinates": [
          49.781881909666794,
          -53.080420327281644
        ]
      }
    },
    {
      "type": "Feature",
      "properties": {
        "norad_id": 66622,
        "name": "STARLINK-35950",
        "group": "last-30-days",
        "lat": 52.64490780653609,
        "lon": -115.2776155652143,
        "alt_km": 439.3691772870334,
        "timestamp": "2025-12-21T20:41:06.755934+00:00",
        "meta_object_name": "STARLINK-35950",
        "meta_object_id": "2025-271F",
        "meta_epoch": "2025-12-21T14:00:01.999872",
        "meta_mean_motion": 15.39614756,
        "meta_eccentricity": 0.00011961,
        "meta_inclination": 53.1596,
        "meta_ra_of_asc_node": 145.2076,
        "meta_arg_of_pericenter": 86.2968,
        "meta_mean_anomaly": 265.5963,
        "meta_ephemeris_type": 0,
        "meta_classification_type": "U",
        "meta_norad_cat_id": 66622,
        "meta_element_set_no": 999,
        "meta_rev_at_epoch": 566,
        "meta_bstar": -5.9697673e-05,
        "meta_mean_motion_dot": -2.786e-05,
        "meta_mean_motion_ddot": 0,
        "tle_line1": "1 66622U 25271F   25355.58335648 -.00002786  00000+0 -59698-4 0  9996",
        "tle_line2": "2 66622  53.1596 145.2076 0001196  86.2968 265.5963 15.39614756  5664"
      },
      "geometry": {
        "type": "Point",
        "coordinates": [
          -115.2776155652143,
          52.64490780653609
        ]
      }
    },
    {
      "type": "Feature",
      "properties": {
        "norad_id": 66623,
        "name": "STARLINK-35920",
        "group": "last-30-days",
        "lat": 34.464278815145505,
        "lon": 174.96177563364148,
        "alt_km": 442.36001086420856,
        "timestamp": "2025-12-21T20:41:06.755943+00:00",
        "meta_object_name": "STARLINK-35920",
        "meta_object_id": "2025-271G",
        "meta_epoch": "2025-12-21T14:15:32.197824",
        "meta_mean_motion": 15.39649462,
        "meta_eccentricity": 8.841e-05,
        "meta_inclination": 53.1616,
        "meta_ra_of_asc_node": 145.2566,
        "meta_arg_of_pericenter": 96.7631,
        "meta_mean_anomaly": 263.3474,
        "meta_ephemeris_type": 0,
        "meta_classification_type": "U",
        "meta_norad_cat_id": 66623,
        "meta_element_set_no": 999,
        "meta_rev_at_epoch": 557,
        "meta_bstar": 0.00092153964,
        "meta_mean_motion_dot": 0.00036674,
        "meta_mean_motion_ddot": 0,
        "tle_line1": "1 66623U 25271G   25355.59412266  .00036674  00000+0  92154-3 0  9994",
        "tle_line2": "2 66623  53.1616 145.2566 0000884  96.7631 263.3474 15.39649462  5573"
      },
      "geometry": {
        "type": "Point",
        "coordinates": [
          174.96177563364148,
          34.464278815145505
        ]
      }
    }
  ]
}